NORAD_CAT_ID,OBJECT_NAME,OBJECT_TYPE,EPOCH,MEAN_MOTION,ECCENTRICITY,INCLINATION,RA_OF_ASC_NODE,ARG_OF_PERICENTER,MEAN_ANOMALY,BSTAR,MEAN_MOTION_DOT,MEAN_MOTION_DDOT,TLE_LINE0,TLE_LINE1,TLE_LINE2,SEMIMAJOR_AXIS,PERIOD,APOGEE,PERIGEE,DECAYED
53748.0,STARLINK-4669,PAYLOAD,2023-09-13 13:19:54,15.08846545,0.0001334,53.2196,21.0597,86.4577,273.6568,0.00014488,2.019e-05,0.0,0 STARLINK-4669,1 53748U 22107BA  23256.55549275  .00002019  00000-0  14488-3 0  9999,2 53748  53.2196  21.0597 0001334  86.4577 273.6568 15.08846545 57495,6917.86,95.437,540.648,538.803,0.0
53748.0,STARLINK-4669,PAYLOAD,2023-09-13 14:55:17,15.08853226,0.000136,53.2201,20.7627,83.5718,276.5429,9.4514e-05,1.217e-05,0.0,0 STARLINK-4669,1 53748U 22107BA  23256.62173014  .00001217  00000-0  94514-4 0  9999,2 53748  53.2201  20.7627 0001360  83.5718 276.5429 15.08853226 57500,6917.84,95.437,540.646,538.764,0.0
53748.0,STARLINK-4669,PAYLOAD,2023-09-14 08:24:33,15.0883366,0.0001438,53.2201,17.4918,101.8462,258.2691,-6.0683e-05,-1.253e-05,0.0,0 STARLINK-4669,1 53748U 22107BA  23257.35038818 -.00001253  00000-0 -60683-4 0  9994,2 53748  53.2201  17.4918 0001438 101.8462 258.2691 15.08833660 56835,6917.9,95.438,540.76,538.77,0.0
53748.0,STARLINK-4669,PAYLOAD,2023-09-14 13:10:43,15.0883006,0.0001294,53.2202,16.5995,102.0814,258.0323,-8.7327e-05,-1.677e-05,0.0,0 STARLINK-4669,1 53748U 22107BA  23257.54911249 -.00001677  00000-0 -87327-4 0  9997,2 53748  53.2202  16.5995 0001294 102.0814 258.0323 15.08830060 57646,6917.911,95.438,540.671,538.881,0.0
53748.0,STARLINK-4669,PAYLOAD,2023-09-14 14:46:06,15.08827782,0.0001311,53.2194,16.3013,104.2349,255.8789,-0.0001085,-2.014e-05,0.0,0 STARLINK-4669,1 53748U 22107BA  23257.61535449 -.00002014  00000-0 -10850-3 0  9991,2 53748  53.2194  16.3013 0001311 104.2349 255.8789 15.08827782 56874,6917.918,95.438,540.69,538.876,0.0
53748.0,STARLINK-4669,PAYLOAD,2023-09-15 08:15:20,15.08836853,0.0001143,53.2186,13.0294,104.7263,255.3856,-5.9147e-06,-3.82e-06,0.0,0 STARLINK-4669,1 53748U 22107BA  23258.34398936 -.00000382  00000-0 -59147-5 0  9990,2 53748  53.2186  13.0294 0001143 104.7263 255.3856 15.08836853 56984,6917.89,95.438,540.546,538.964,0.0
53748.0,STARLINK-4669,PAYLOAD,2023-09-15 13:01:29,15.08841267,0.0001407,53.22,12.1401,99.6328,260.4823,4.5624e-05,4.38e-06,0.0,0 STARLINK-4669,1 53748U 22107BA  23258.54270582  .00000438  00000-0  45624-4 0  9992,2 53748  53.2200  12.1401 0001407  99.6328 260.4823 15.08841267 57794,6917.877,95.437,540.715,538.768,0.0
53748.0,STARLINK-4669,PAYLOAD,2023-09-15 14:36:52,15.08854547,0.0001599,53.2205,11.8428,110.8273,249.289,-3.7006e-05,-8.77e-06,0.0,0 STARLINK-4669,1 53748U 22107BA  23258.60893829 -.00000877  00000-0 -37006-4 0  9998,2 53748  53.2205  11.8428 0001599 110.8273 249.2890 15.08854547 57021,6917.836,95.437,540.807,538.595,0.0
53748.0,STARLINK-4669,PAYLOAD,2023-09-16 08:06:07,15.08829178,0.0001392,53.2203,8.5699,110.9232,249.1909,0.00020211,2.929e-05,0.0,0 STARLINK-4669,1 53748U 22107BA  23259.33759109  .00002929  00000-0  20211-3 0  9998,2 53748  53.2203   8.5699 0001392 110.9232 249.1909 15.08829178 57133,6917.913,95.438,540.741,538.815,0.0
53748.0,STARLINK-4669,PAYLOAD,2023-09-16 12:52:17,15.08828696,0.0001392,53.2205,7.678,112.2678,247.8461,0.00018215,2.611e-05,0.0,0 STARLINK-4669,1 53748U 22107BA  23259.53631289  .00002611  00000-0  18215-3 0  9997,2 53748  53.2205   7.6780 0001392 112.2678 247.8461 15.08828696 57946,6917.915,95.438,540.743,538.817,0.0
53748.0,STARLINK-4669,PAYLOAD,2023-09-17 12:43:02,15.08875242,0.0001456,53.2201,3.2157,100.2476,259.868,0.00025039,3.703e-05,0.0,0 STARLINK-4669,1 53748U 22107BA  23260.52988487  .00003703  00000-0  25039-3 0  9998,2 53748  53.2201   3.2157 0001456 100.2476 259.8680 15.08875242 58098,6917.773,95.435,540.645,538.63,0.0
53748.0,STARLINK-4669,PAYLOAD,2023-09-17 17:29:10,15.08888402,0.000124,53.2192,2.323,114.9869,245.1252,0.00033041,4.981e-05,0.0,0 STARLINK-4669,1 53748U 22107BA  23260.72858815  .00004981  00000-0  33041-3 0  9992,2 53748  53.2192   2.3230 0001240 114.9869 245.1252 15.08888402 57340,6917.732,95.434,540.455,538.74,0.0
53748.0,STARLINK-4669,PAYLOAD,2023-09-17 23:50:46,15.08836101,0.0001306,53.2202,1.1362,95.9222,264.1919,-2.9793e-05,-7.62e-06,0.0,0 STARLINK-4669,1 53748U 22107BA  23260.99359042 -.00000762  00000-0 -29793-4 0  9994,2 53748  53.2202   1.1362 0001306  95.9222 264.1919 15.08836101 57383,6917.892,95.438,540.661,538.854,0.0
53748.0,STARLINK-4669,PAYLOAD,2023-09-18 12:33:51,15.08830466,0.0001593,53.2205,358.7578,93.1092,267.0082,-2.8416e-05,-7.4e-06,0.0,0 STARLINK-4669,1 53748U 22107BA  23261.52351741 -.00000740  00000-0 -28416-4 0  9999,2 53748  53.2205 358.7578 0001593  93.1092 267.0082 15.08830466 58246,6917.91,95.438,540.877,538.673,0.0
53748.0,STARLINK-4669,PAYLOAD,2023-09-18 14:09:14,15.08832216,0.0001634,53.2208,358.46,97.4276,262.6902,-1.1983e-05,-4.79e-06,0.0,0 STARLINK-4669,1 53748U 22107BA  23261.58975585 -.00000479  00000-0 -11983-4 0  9993,2 53748  53.2208 358.4600 0001634  97.4276 262.6902 15.08832216 58257,6917.904,95.438,540.9,538.639,0.0
53748.0,STARLINK-4669,PAYLOAD,2023-09-19 10:49:14,15.08851317,0.0001303,53.2193,354.5943,87.5745,272.5396,0.00018287,2.625e-05,0.0,0 STARLINK-4669,1 53748U 22107BA  23262.45085896  .00002625  00000-0  18287-3 0  9993,2 53748  53.2193 354.5943 0001303  87.5745 272.5396 15.08851317 57609,6917.846,95.437,540.612,538.809,0.0
53748.0,STARLINK-4669,PAYLOAD,2023-09-19 13:59:59,15.08865239,0.0001475,53.2189,353.9978,96.6336,263.4824,0.00031175,4.68e-05,0.0,0 STARLINK-4669,1 53748U 22107BA  23262.58333179  .00004680  00000-0  31175-3 0  9991,2 53748  53.2189 353.9978 0001475  96.6336 263.4824 15.08865239 57627,6917.803,95.436,540.689,538.648,0.0
53748.0,STARLINK-4669,PAYLOAD,2023-09-20 12:15:25,15.08818999,0.0001418,53.2183,349.8365,89.9069,270.2085,-0.00023265,-3.986e-05,0.0,0 STARLINK-4669,1 53748U 22107BA  23263.51071001 -.00003986  00000-0 -23265-3 0  9999,2 53748  53.2183 349.8365 0001418  89.9069 270.2085 15.08818999 57761,6917.945,95.439,540.791,538.829,0.0
53748.0,STARLINK-4669,PAYLOAD,2023-09-21 10:30:49,15.08834865,0.0001433,53.2187,345.6735,89.3098,270.8059,-1.9741e-05,-6.02e-06,0.0,0 STARLINK-4669,1 53748U 22107BA  23264.43806941 -.00000602  00000-0 -19741-4 0  9997,2 53748  53.2187 345.6735 0001433  89.3098 270.8059 15.08834865 57906,6917.896,95.438,540.752,538.77,0.0
53748.0,STARLINK-4669,PAYLOAD,2023-09-21 12:06:12,15.08836696,0.0001494,53.2189,345.3754,90.0343,270.082,-3.006e-05,-7.66e-06,0.0,0 STARLINK-4669,1 53748U 22107BA  23264.50430726 -.00000766  00000-0 -30060-4 0  9997,2 53748  53.2189 345.3754 0001494  90.0343 270.0820 15.08836696 58694,6917.89,95.438,540.789,538.722,0.0
53748.0,STARLINK-4669,PAYLOAD,2023-09-21 15:16:58,15.08837925,0.0001508,53.2193,344.7786,104.0795,256.0365,0.00010515,1.386e-05,0.0,0 STARLINK-4669,1 53748U 22107BA  23264.63678761  .00001386  00000-0  10515-3 0  9993,2 53748  53.2193 344.7786 0001508 104.0795 256.0365 15.08837925 58717,6917.887,95.438,540.795,538.709,0.0
53748.0,STARLINK-4669,PAYLOAD,2023-09-22 10:21:36,15.0883728,0.0001588,53.2186,341.2117,105.4645,254.6522,0.000465,7.12e-05,0.0,0 STARLINK-4669,1 53748U 22107BA  23265.43167671  .00007120  00000-0  46500-3 0  9990,2 53748  53.2186 341.2117 0001588 105.4645 254.6522 15.08837280 58832,6917.889,95.438,540.852,538.655,0.0
53748.0,STARLINK-4669,PAYLOAD,2023-09-22 15:07:46,15.08842464,0.0001578,53.2184,340.319,106.5012,253.6153,0.00047141,7.223e-05,0.0,0 STARLINK-4669,1 53748U 22107BA  23265.63039498  .00007223  00000-0  47141-3 0  9993,2 53748  53.2184 340.3190 0001578 106.5012 253.6153 15.08842464 58086,6917.873,95.437,540.829,538.646,0.0
53748.0,STARLINK-4669,PAYLOAD,2023-09-23 11:47:46,15.0885043,0.0001553,53.2184,336.4534,106.5986,253.5177,0.00030506,4.572e-05,0.0,0 STARLINK-4669,1 53748U 22107BA  23266.49151131  .00004572  00000-0  30506-3 0  9998,2 53748  53.2184 336.4534 0001553 106.5986 253.5177 15.08850430 58994,6917.849,95.437,540.788,538.639,0.0
53748.0,STARLINK-4669,PAYLOAD,2023-09-23 21:20:05,15.08852245,0.0001501,53.2186,334.6704,88.8531,271.2633,0.00026803,3.982e-05,0.0,0 STARLINK-4669,1 53748U 22107BA  23266.88894942  .00003982  00000-0  26803-3 0  9994,2 53748  53.2186 334.6704 0001501  88.8531 271.2633 15.08852245 58277,6917.843,95.437,540.746,538.67,0.0
53748.0,STARLINK-4669,PAYLOAD,2023-09-24 10:03:10,15.08841919,0.0001728,53.2195,332.2944,103.1428,256.9757,1.7154e-05,-1.5e-07,0.0,0 STARLINK-4669,1 53748U 22107BA  23267.41887258 -.00000015  00000-0  17154-4 0  9991,2 53748  53.2195 332.2944 0001728 103.1428 256.9757 15.08841919 58356,6917.875,95.437,540.935,538.544,0.0
53748.0,STARLINK-4669,PAYLOAD,2023-09-24 11:38:33,15.08845502,0.0001535,53.2184,331.995,96.0447,264.072,7.6625e-05,9.32e-06,0.0,0 STARLINK-4669,1 53748U 22107BA  23267.48511064  .00000932  00000-0  76625-4 0  9992,2 53748  53.2184 331.9950 0001535  96.0447 264.0720 15.08845502 59144,6917.864,95.437,540.79,538.667,0.0
53748.0,STARLINK-4669,PAYLOAD,2023-09-25 09:53:57,15.08844925,0.0001716,53.2185,327.8323,105.3231,254.7951,0.00012256,1.663e-05,0.0,0 STARLINK-4669,1 53748U 22107BA  23268.41247232  .00001663  00000-0  12256-3 0  9990,2 53748  53.2185 327.8323 0001716 105.3231 254.7951 15.08844925 59284,6917.865,95.437,540.917,538.543,0.0
53748.0,STARLINK-4669,PAYLOAD,2023-09-26 09:44:45,15.08839387,0.0001634,53.2177,323.3716,96.0824,264.0354,0.00010332,1.357e-05,0.0,0 STARLINK-4669,1 53748U 22107BA  23269.40607687  .00001357  00000-0  10332-3 0  9997,2 53748  53.2177 323.3716 0001634  96.0824 264.0354 15.08839387 58652,6917.882,95.438,540.878,538.617,0.0
53748.0,STARLINK-4669,PAYLOAD,2023-09-26 12:55:31,15.08845195,0.0001464,53.2176,322.7771,93.9742,266.1417,0.00022884,3.356e-05,0.0,0 STARLINK-4669,1 53748U 22107BA  23269.53855499  .00003356  00000-0  22884-3 0  9993,2 53748  53.2176 322.7771 0001464  93.9742 266.1417 15.08845195 59457,6917.865,95.437,540.742,538.717,0.0
